{
  "type": "FeatureCollection",
  "features": [
    {
      "type": "Feature",
      "properties": {
        "norad_id": 30080,
        "name": "FENGYUN 1C DEB",
        "group": "fengyun-1c-debris",
        "lat": -80.31153662833009,
        "lon": 79.8188445371558,
        "alt_km": 957.720785301186,
        "timestamp": "2025-12-08T21:31:04.941486+00:00",
        "meta_object_name": "FENGYUN 1C DEB",
        "meta_object_id": "1999-025QH",
        "meta_epoch": "2025-12-08T12:17:56.073984",
        "meta_mean_motion": 14.10814675,
        "meta_eccentricity": 0.01338975,
        "meta_inclination": 98.6979,
        "meta_ra_of_asc_node": 323.1675,
        "meta_arg_of_pericenter": 72.5126,
        "meta_mean_anomaly": 43.7049,
        "meta_ephemeris_type": 0,
        "meta_classification_type": "U",
        "meta_norad_cat_id": 30080,
        "meta_element_set_no": 999,
        "meta_rev_at_epoch": 97178,
        "meta_bstar": 0.00049070701,
        "meta_mean_motion_dot": 9.14e-06,
        "meta_mean_motion_ddot": 0,
        "tle_line1": "1 30080U 99025QH  25342.51245456  .00000914  00000+0  49071-3 0  9991",
        "tle_line2": "2 30080  98.6979 323.1675 0133897  72.5126  43.7049 14.10814675971788"
      },
      "geometry": {
        "type": "Point",
        "coordinates": [
          79.8188445371558,
          -80.31153662833009
        ]
      }
    },
    {
      "type": "Feature",
      "properties": {
        "norad_id": 30081,
        "name": "FENGYUN 1C DEB",
        "group": "fengyun-1c-debris",
        "lat": -79.92824994743049,
        "lon": 41.45548499217112,
        "alt_km": 892.5078129138919,
        "timestamp": "2025-12-08T21:31:04.941497+00:00",
        "meta_object_name": "FENGYUN 1C DEB",
        "meta_object_id": "1999-025QJ",
        "meta_epoch": "2025-12-08T13:53:34.130400",
        "meta_mean_motion": 13.98269355,
        "meta_eccentricity": 0.00760884,
        "meta_inclination": 98.9222,
        "meta_ra_of_asc_node": 338.9653,
        "meta_arg_of_pericenter": 350.703,
        "meta_mean_anomaly": 126.3894,
        "meta_ephemeris_type": 0,
        "meta_classification_type": "U",
        "meta_norad_cat_id": 30081,
        "meta_element_set_no": 999,
        "meta_rev_at_epoch": 96296,
        "meta_bstar": 0.00078845802,
        "meta_mean_motion_dot": 1.109e-05,
        "meta_mean_motion_ddot": 0,
        "tle_line1": "1 30081U 99025QJ  25342.57886725  .00001109  00000+0  78846-3 0  9997",
        "tle_line2": "2 30081  98.9222 338.9653 0076088 350.7030 126.3894 13.98269355962966"
      },
      "geometry": {
        "type": "Point",
        "coordinates": [
          41.45548499217112,
          -79.92824994743049
        ]
      }
    },
    {
      "type": "Feature",
      "properties": {
        "norad_id": 30082,
        "name": "FENGYUN 1C DEB",
        "group": "fengyun-1c-debris",
        "lat": -12.14305605302916,
        "lon": -88.05500376088338,
        "alt_km": 573.040086766513,
        "timestamp": "2025-12-08T21:31:04.941507+00:00",
        "meta_object_name": "FENGYUN 1C DEB",
        "meta_object_id": "1999-025QK",
        "meta_epoch": "2025-12-08T08:53:24.571392",
        "meta_mean_motion": 15.14792168,
        "meta_eccentricity": 0.00696033,
        "meta_inclination": 98.818,
        "meta_ra_of_asc_node": 269.4214,
        "meta_arg_of_pericenter": 181.0524,
        "meta_mean_anomaly": 179.0569,
        "meta_ephemeris_type": 0,
        "meta_classification_type": "U",
        "meta_norad_cat_id": 30082,
        "meta_element_set_no": 999,
        "meta_rev_at_epoch": 1227,
        "meta_bstar": 0.0013909831,
        "meta_mean_motion_dot": 0.00027434,
        "meta_mean_motion_ddot": 0,
        "tle_line1": "1 30082U 99025QK  25342.37042328  .00027434  00000+0  13910-2 0  9998",
        "tle_line2": "2 30082  98.8180 269.4214 0069603 181.0524 179.0569 15.14792168 12275"
      },
      "geometry": {
        "type": "Point",
        "coordinates": [
          -88.05500376088338,
          -12.14305605302916
        ]
      }
    },
    {
      "type": "Feature",
      "properties": {
        "norad_id": 30086,
        "name": "FENGYUN 1C DEB",
        "group": "fengyun-1c-debris",
        "lat": -12.637247456516281,
        "lon": 18.671556028648308,
        "alt_km": 926.4048818893225,
        "timestamp": "2025-12-08T21:31:04.941517+00:00",
        "meta_object_name": "FENGYUN 1C DEB",
        "meta_object_id": "1999-025QP",
        "meta_epoch": "2025-12-08T01:11:44.803104",
        "meta_mean_motion": 14.03818317,
        "meta_eccentricity": 0.00617235,
        "meta_inclination": 98.9102,
        "meta_ra_of_asc_node": 15.826,
        "meta_arg_of_pericenter": 147.4114,
        "meta_mean_anomaly": 243.2235,
        "meta_ephemeris_type": 0,
        "meta_classification_type": "U",
        "meta_norad_cat_id": 30086,
        "meta_element_set_no": 999,
        "meta_rev_at_epoch": 96630,
        "meta_bstar": 0.0005515509,
        "meta_mean_motion_dot": 8.41e-06,
        "meta_mean_motion_ddot": 0,
        "tle_line1": "1 30086U 99025QP  25342.04982411  .00000841  00000+0  55155-3 0  9993",
        "tle_line2": "2 30086  98.9102  15.8260 0061723 147.4114 243.2235 14.03818317966302"
      },
      "geometry": {
        "type": "Point",
        "coordinates": [
          18.671556028648308,
          -12.637247456516281
        ]
      }
    },
    {
      "type": "Feature",
      "properties": {
        "norad_id": 30087,
        "name": "FENGYUN 1C DEB",
        "group": "fengyun-1c-debris",
        "lat": 4.9329433101112805,
        "lon": -164.02437268471343,
        "alt_km": 651.2161293217869,
        "timestamp": "2025-12-08T21:31:04.941534+00:00",
        "meta_object_name": "FENGYUN 1C DEB",
        "meta_object_id": "1999-025QQ",
        "meta_epoch": "2025-12-08T14:46:11.144064",
        "meta_mean_motion": 14.35691621,
        "meta_eccentricity": 0.02301732,
        "meta_inclination": 98.3806,
        "meta_ra_of_asc_node": 14.9731,
        "meta_arg_of_pericenter": 133.638,
        "meta_mean_anomaly": 27.084,
        "meta_ephemeris_type": 0,
        "meta_classification_type": "U",
        "meta_norad_cat_id": 30087,
        "meta_element_set_no": 999,
        "meta_rev_at_epoch": 98636,
        "meta_bstar": 0.00048344477,
        "meta_mean_motion_dot": 1.839e-05,
        "meta_mean_motion_ddot": 0,
        "tle_line1": "1 30087U 99025QQ  25342.61540676  .00001839  00000+0  48344-3 0  9990",
        "tle_line2": "2 30087  98.3806  14.9731 0230173 133.6380  27.0840 14.35691621986360"
      },
      "geometry": {
        "type": "Point",
        "coordinates": [
          -164.02437268471343,
          4.9329433101112805
        ]
      }
    },
    {
      "type": "Feature",
      "properties": {
        "norad_id": 30088,
        "name": "FENGYUN 1C DEB",
        "group": "fengyun-1c-debris",
        "lat": 67.1034212129458,
        "lon": -53.06788146493128,
        "alt_km": 906.6556014785574,
        "timestamp": "2025-12-08T21:31:04.941544+00:00",
        "meta_object_name": "FENGYUN 1C DEB",
        "meta_object_id": "1999-025QR",
        "meta_epoch": "2025-12-08T11:43:07.364352",
        "meta_mean_motion": 14.35893259,
        "meta_eccentricity": 0.02007576,
        "meta_inclination": 98.3538,
        "meta_ra_of_asc_node": 326.8957,
        "meta_arg_of_pericenter": 260.2613,
        "meta_mean_anomaly": 218.5638,
        "meta_ephemeris_type": 0,
        "meta_classification_type": "U",
        "meta_norad_cat_id": 30088,
        "meta_element_set_no": 999,
        "meta_rev_at_epoch": 98611,
        "meta_bstar": 0.00069827987,
        "meta_mean_motion_dot": 2.497e-05,
        "meta_mean_motion_ddot": 0,
        "tle_line1": "1 30088U 99025QR  25342.48827968  .00002497  00000+0  69828-3 0  9999",
        "tle_line2": "2 30088  98.3538 326.8957 0200757 260.2613 218.5638 14.35893259986115"
      },
      "geometry": {
        "type": "Point",
        "coordinates": [
          -53.06788146493128,
          67.1034212129458
        ]
      }
    },
    {
      "type": "Feature",
      "properties": {
        "norad_id": 30089,
        "name": "FENGYUN 1C DEB",
        "group": "fengyun-1c-debris",
        "lat": 3.1594389424741673,
        "lon": 68.69659508991143,
        "alt_km": 755.7199646529025,
        "timestamp": "2025-12-08T21:31:04.941555+00:00",
        "meta_object_name": "FENGYUN 1C DEB",
        "meta_object_id": "1999-025QS",
        "meta_epoch": "2025-12-08T15:56:32.157312",
        "meta_mean_motion": 14.3029789,
        "meta_eccentricity": 0.00731302,
        "meta_inclination": 98.903,
        "meta_ra_of_asc_node": 247.9632,
        "meta_arg_of_pericenter": 221.9759,
        "meta_mean_anomaly": 199.7186,
        "meta_ephemeris_type": 0,
        "meta_classification_type": "U",
        "meta_norad_cat_id": 30089,
        "meta_element_set_no": 999,
        "meta_rev_at_epoch": 98421,
        "meta_bstar": 0.00047130439,
        "meta_mean_motion_dot": 1.212e-05,
        "meta_mean_motion_ddot": 0,
        "tle_line1": "1 30089U 99025QS  25342.66426108  .00001212  00000+0  47130-3 0  9997",
        "tle_line2": "2 30089  98.9030 247.9632 0073130 221.9759 199.7186 14.30297890984211"
      },
      "geometry": {
        "type": "Point",
        "coordinates": [
          68.69659508991143,
          3.1594389424741673
        ]
      }
    }
  ]
}